NORAD_CAT_ID,OBJECT_NAME,OBJECT_TYPE,EPOCH,MEAN_MOTION,ECCENTRICITY,INCLINATION,RA_OF_ASC_NODE,ARG_OF_PERICENTER,MEAN_ANOMALY,BSTAR,MEAN_MOTION_DOT,MEAN_MOTION_DDOT,TLE_LINE0,TLE_LINE1,TLE_LINE2,SEMIMAJOR_AXIS,PERIOD,APOGEE,PERIGEE,DECAYED
53886.0,STARLINK-5028,PAYLOAD,2022-10-15 20:00:01,15.73258968,0.0001261,53.2158,149.7393,109.8102,250.6724,-0.0010909,-0.00151378,0.0,0 STARLINK-5028,1 53886U 22119A   22288.83335648 -.00151378  00000-0 -10909-2 0  9995,2 53886  53.2158 149.7393 0001261 109.8102 250.6724 15.73258968  3714,6727.727,91.53,350.44,348.744,0.0
53886.0,STARLINK-5028,PAYLOAD,2022-10-15 22:00:01,15.73226304,0.0001240999999999,53.2157,149.3274,106.0578,6.6711,-0.00092503,-0.00128619,0.0,0 STARLINK-5028,1 53886U 22119A   22288.91668981 -.00128619  00000-0 -92503-3 0  9996,2 53886  53.2157 149.3274 0001241 106.0578   6.6711 15.73226304  1308,6727.82,91.532,350.52,348.85,0.0
53886.0,STARLINK-5028,PAYLOAD,2022-10-16 04:00:00,15.73153888,0.0001099,53.2157,148.0902,103.5645,345.7924,-9.017e-05,-0.00013229,0.0,0 STARLINK-5028,1 53886U 22119A   22289.16667824 -.00013229  00000-0 -90170-4 0  9998,2 53886  53.2157 148.0902 0001099 103.5645 345.7924 15.73153888  3772,6728.026999999999,91.536,350.631,349.152,0.0
53886.0,STARLINK-5028,PAYLOAD,2022-10-16 14:00:01,15.73112178,0.0001294,53.216,146.0268,114.4758,175.9642,0.00073742,0.00103767,0.0,0 STARLINK-5028,1 53886U 22119A   22289.58334491  .00103767  00000-0  73742-3 0  9995,2 53886  53.2160 146.0268 0001294 114.4758 175.9642 15.73112178  1306,6728.146,91.538,350.881,349.14,0.0
53886.0,STARLINK-5028,PAYLOAD,2022-10-16 20:00:01,15.731686600000002,0.0001223,53.2159,144.7914,105.2539,161.8281,0.0003839,0.00053529,0.0,0 STARLINK-5028,1 53886U 22119A   22289.83334491  .00053529  00000-0  38390-3 0  9993,2 53886  53.2159 144.7914 0001223 105.2539 161.8281 15.73168660  3878,6727.985,91.535,350.672,349.027,0.0
53886.0,STARLINK-5028,PAYLOAD,2022-10-16 22:00:00,15.73171591,0.0001248,53.2161,144.3766,103.4721,275.8365,0.00051568,0.00072289,0.0,0 STARLINK-5028,1 53886U 22119A   22289.91667824  .00072289  00000-0  51568-3 0  9997,2 53886  53.2161 144.3766 0001248 103.4721 275.8365 15.73171591  1304,6727.976,91.535,350.681,349.00199999999984,0.0
53886.0,STARLINK-5028,PAYLOAD,2022-10-17 04:00:00,15.73214285,0.0001163,53.2153,143.1417,101.5272,254.4133,3.1228e-05,3.767e-05,0.0,0 STARLINK-5028,1 53886U 22119A   22290.16667824  .00003767  00000-0  31228-4 0  9993,2 53886  53.2153 143.1417 0001163 101.5272 254.4133 15.73214285  3925,6727.854,91.532,350.50199999999984,348.93699999999984,0.0
53886.0,STARLINK-5028,PAYLOAD,2022-10-17 12:00:00,15.73187252,0.0001341999999999,53.2154,141.4909,116.2422,328.6969,0.00067121,0.00094595,0.0,0 STARLINK-5028,1 53886U 22119A   22290.50001157  .00094595  00000-0  67121-3 0  9991,2 53886  53.2154 141.4909 0001342 116.2422 328.6969 15.73187252  3982,6727.932,91.534,350.699,348.894,0.0
53886.0,STARLINK-5028,PAYLOAD,2022-10-17 14:00:01,15.73201137,0.0001406,53.2156,141.077,116.4296,80.7412,0.00071571,0.00101046,0.0,0 STARLINK-5028,1 53886U 22119A   22290.58334491  .00101046  00000-0  71571-3 0  9993,2 53886  53.2156 141.0770 0001406 116.4296  80.7412 15.73201137  1300,6727.892,91.533,350.70300000000015,348.811,0.0
53886.0,STARLINK-5028,PAYLOAD,2022-10-17 20:00:01,15.73261363,0.0001278,53.2156,139.8433,107.5323,66.3181,-0.00049457,-0.00069639,0.0,0 STARLINK-5028,1 53886U 22119A   22290.83334491 -.00069639  00000-0 -49457-3 0  9992,2 53886  53.2156 139.8433 0001278 107.5323  66.3181 15.73261363  4033,6727.72,91.53,350.445,348.725,0.0
53886.0,STARLINK-5028,PAYLOAD,2022-10-17 22:00:00,15.73253751,0.000125,53.2158,139.4314,104.9556,181.1413,-0.00051918,-0.0007302,0.0,0 STARLINK-5028,1 53886U 22119A   22290.91667824 -.00073020  00000-0 -51918-3 0  9994,2 53886  53.2158 139.4314 0001250 104.9556 181.1413 15.73253751  1301,6727.7419999999975,91.53,350.4480000000001,348.766,0.0
53886.0,STARLINK-5028,PAYLOAD,2022-10-18 14:00:01,15.73140344,0.0001125,53.2161,136.1305,117.2529,346.7154,0.00032359,0.00044921,0.0,0 STARLINK-5028,1 53886U 22119A   22291.58334491  .00044921  00000-0  32359-3 0  9993,2 53886  53.2161 136.1305 0001125 117.2529 346.7154 15.73140344  1301,6728.065,91.537,350.68699999999984,349.173,0.0
53886.0,STARLINK-5028,PAYLOAD,2022-10-18 20:00:01,15.73205421,0.0001438,53.2175,134.876,100.9193,339.7582,-1.3953e-05,-2.578e-05,0.0,0 STARLINK-5028,1 53886U 22119A   22291.83334491 -.00002578  00000-0 -13953-4 0  9995,2 53886  53.2175 134.8760 0001438 100.9193 339.7582 15.73205421  4194,6727.88,91.533,350.712,348.777,0.0
53886.0,STARLINK-5028,PAYLOAD,2022-10-18 22:00:00,15.73204458,0.000143,53.2176,134.4639,101.199,91.7122,7.3977e-07,-5.16e-06,0.0,0 STARLINK-5028,1 53886U 22119A   22291.91667824 -.00000516  00000-0  73977-6 0  9996,2 53886  53.2176 134.4639 0001430 101.1990  91.7122 15.73204458  1300,6727.882,91.533,350.71,348.785,0.0
53886.0,STARLINK-5028,PAYLOAD,2022-10-19 14:00:01,15.73249711,0.0001099,53.2156,131.1822,117.4328,253.316,-0.00013963,-0.0002020999999999,0.0,0 STARLINK-5028,1 53886U 22119A   22292.58334491 -.00020210  00000-0 -13963-3 0  9991,2 53886  53.2156 131.1822 0001099 117.4328 253.3160 15.73249711  1301,6727.753000000002,91.53,350.358,348.879,0.0
53886.0,STARLINK-5028,PAYLOAD,2022-10-19 22:00:00,15.73204251,0.000103,53.2163,129.5251,111.2494,348.4659,-9.3087e-05,-0.00013664,0.0,0 STARLINK-5028,1 53886U 22119A   22292.91667824 -.00013664  00000-0 -93087-4 0  9998,2 53886  53.2163 129.5251 0001030 111.2494 348.4659 15.73204251  1306,6727.8830000000025,91.533,350.441,349.055,0.0
53886.0,STARLINK-5028,PAYLOAD,2022-10-20 06:00:00,15.732540900000002,8.45e-05,53.2158,127.8838,107.6864,80.9748,-0.00059042,-0.00082856,0.0,0 STARLINK-5028,1 53886U 22119A   22293.25001157 -.00082856  00000-0 -59042-3 0  9998,2 53886  53.2158 127.8838 0000845 107.6864  80.9748 15.73254090  4413,6727.741,91.53,350.1740000000001,349.037,0.0
53886.0,STARLINK-5028,PAYLOAD,2022-10-20 12:00:00,15.73176395,9.59e-05,53.2156,126.6456,112.5017,52.892,0.00050304,0.00070501,0.0,0 STARLINK-5028,1 53886U 22119A   22293.50001157  .00070501  00000-0  50304-3 0  9990,2 53886  53.2156 126.6456 0000959 112.5017  52.8920 15.73176395  4450,6727.962,91.535,350.473,349.182,0.0
53886.0,STARLINK-5028,PAYLOAD,2022-10-20 14:00:01,15.73193282,9.79e-05,53.2157,126.2338,111.9979,165.6061,0.00019835,0.00027299,0.0,0 STARLINK-5028,1 53886U 22119A   22293.58334491  .00027299  00000-0  19835-3 0  9998,2 53886  53.2157 126.2338 0000979 111.9979 165.6061 15.73193282  1302,6727.9140000000025,91.534,350.43800000000016,349.121,0.0
53886.0,STARLINK-5028,PAYLOAD,2022-10-20 20:00:01,15.73214659,8.94e-05,53.2154,124.9976,95.4928,158.8098,-0.00043072,-0.00060669,0.0,0 STARLINK-5028,1 53886U 22119A   22293.83334491 -.00060669  00000-0 -43072-3 0  9996,2 53886  53.2154 124.9976 0000894  95.4928 158.8098 15.73214659  4509,6727.853,91.532,350.32,349.117,0.0
53886.0,STARLINK-5028,PAYLOAD,2022-10-20 22:00:00,15.73171267,8.7e-05,53.2156,124.583,95.6132,270.9349,0.0001561,0.00021317,0.0,0 STARLINK-5028,1 53886U 22119A   22293.91667824  .00021317  00000-0  15610-3 0  9996,2 53886  53.2156 124.5830 0000870  95.6132 270.9349 15.73171267  1306,6727.977,91.535,350.427,349.25699999999995,0.0
53886.0,STARLINK-5028,PAYLOAD,2022-10-21 04:00:00,15.732045499999998,6.96e-05,53.2149,123.3482,100.9265,242.3058,0.00016867,0.00023122,0.0,0 STARLINK-5028,1 53886U 22119A   22294.16667824  .00023122  00000-0  16867-3 0  9995,2 53886  53.2149 123.3482 0000696 100.9265 242.3058 15.73204550  4553,6727.882,91.533,350.215,349.279,0.0
53886.0,STARLINK-5028,PAYLOAD,2022-10-21 14:00:01,15.73228512,8.98e-05,53.2153,121.2835,110.2607,74.1679,-4.8614e-06,-1.302e-05,0.0,0 STARLINK-5028,1 53886U 22119A   22294.58334491 -.00001302  00000-0 -48614-5 0  9997,2 53886  53.2153 121.2835 0000898 110.2607  74.1679 15.73228512  1309,6727.814,91.532,350.283,349.075,0.0
53886.0,STARLINK-5028,PAYLOAD,2022-10-21 20:00:01,15.73226325,9.79e-05,53.2149,120.0496,91.0515,70.0747,-0.00042602,-0.00060048,0.0,0 STARLINK-5028,1 53886U 22119A   22294.83334491 -.00060048  00000-0 -42602-3 0  9996,2 53886  53.2149 120.0496 0000979  91.0515  70.0747 15.73226325  4661,6727.82,91.532,350.344,349.026,0.0
53886.0,STARLINK-5028,PAYLOAD,2022-10-21 22:00:00,15.73189875,0.0001009,53.2151,119.6376,88.2698,185.1015,5.5879e-05,7.226e-05,0.0,0 STARLINK-5028,1 53886U 22119A   22294.91667824  .00007226  00000-0  55879-4 0  9992,2 53886  53.2151 119.6376 0001009  88.2698 185.1015 15.73189875  1302,6727.924,91.534,350.468,349.11,0.0
53886.0,STARLINK-5028,PAYLOAD,2022-10-22 04:00:00,15.73223311,9.24e-05,53.215,118.3992,93.6285,156.4232,-0.00032938,-0.00046634,0.0,0 STARLINK-5028,1 53886U 22119A   22295.16667824 -.00046634  00000-0 -32938-3 0  9998,2 53886  53.2150 118.3992 0000924  93.6285 156.4232 15.73223311  4712,6727.829000000002,91.532,350.315,349.07199999999995,0.0
53886.0,STARLINK-5028,PAYLOAD,2022-10-22 14:00:01,15.73184556,8.36e-05,53.2151,116.3366,98.7381,352.4809,0.00027982,0.00038806,0.0,0 STARLINK-5028,1 53886U 22119A   22295.58334491  .00038806  00000-0  27982-3 0  9998,2 53886  53.2151 116.3366 0000836  98.7381 352.4809 15.73184556  1308,6727.939,91.534,350.367,349.242,0.0
53886.0,STARLINK-5028,PAYLOAD,2022-10-22 20:00:01,15.73216919,8.48e-05,53.2147,115.1009,80.2301,347.6869,0.00038567,0.00053893,0.0,0 STARLINK-5028,1 53886U 22119A   22295.83334491  .00053893  00000-0  38567-3 0  9990,2 53886  53.2147 115.1009 0000848  80.2301 347.6869 15.73216919  4826,6727.847,91.532,350.282,349.141,0.0
53886.0,STARLINK-5028,PAYLOAD,2022-10-22 22:00:00,15.73223035,8.44e-05,53.2147,114.6887,77.247,102.9106,0.00039694,0.00055511,0.0,0 STARLINK-5028,1 53886U 22119A   22295.91667824  .00055511  00000-0  39694-3 0  9999,2 53886  53.2147 114.6887 0000844  77.2470 102.9106 15.73223035  1306,6727.83,91.532,350.26199999999994,349.12699999999984,0.0
